SIRION PATHFINDER-2     
1 43759U 18099B   26162.03730750  .00003984  00000+0  21986-3 0  9999
2 43759  97.4258 211.2409 0007655 330.3363  29.7434 15.14493949411697
CORVUS BC4              
1 43767U 18099K   26162.56482246  .00003521  00000+0  20600-3 0  9999
2 43767  97.4072 205.7096 0008901  31.8449 328.3318 15.12450489411557
M2 PATHFINDER           
1 45727U 20037E   26162.46073950  .00001931  00000+0  14173-3 0  9990
2 45727  97.8158 353.6285 0011967 164.5822 195.5770 15.04652768324635
NETSAT-4                
1 46504U 20068U   26162.55045684  .00016418  00000+0  36585-3 0  9998
2 46504  97.8603 170.3387 0004567   2.6177 357.5092 15.43678218314901
NETSAT-3                
1 46505U 20068V   26162.55238750  .00017585  00000+0  40759-3 0  9991
2 46505  97.8652 168.5644 0005016  21.9125 338.2335 15.42483769314818
NETSAT-1                
1 46506U 20068W   26162.52770533  .00011763  00000+0  35417-3 0  9996
2 46506  97.8744 162.9354 0005692  48.6631 311.5100 15.34510423314436
NETSAT-2                
1 46507U 20068X   26162.27452251  .00017621  00000+0  36601-3 0  9998
2 46507  97.8620 169.9134 0004198  43.2285 316.9291 15.45743313314820
GREENCUBE (IO-117)      
1 53109U 22080E   26152.46502029 -.00000003  00000+0  00000+0 0  9996
2 53109  70.1435 303.7143 0008869 293.3663  66.6064  6.42583280 91055
SITRO-AIS 5 (KATYS)     
1 57176U 23091L   26162.57408647  .00011566  00000+0  40815-3 0  9998
2 57176  97.5068 226.4202 0012770 120.7468 239.5031 15.29326973163488
SITRO-AIS 6 (CHIRKIN)   
1 57192U 23091AC  26162.60570373  .00009333  00000+0  36675-3 0  9994
2 57192  97.5076 225.6007 0013062 123.6696 236.5790 15.25827724163439
SITRO-AIS 8 (ANOKHIN)   
1 57193U 23091AD  26162.60088252  .00014127  00000+0  45877-3 0  9996
2 57193  97.5064 228.0135 0011839 117.0764 243.1687 15.31982277163597
SITRO-AIS 7 (FARTUSHNIY)
1 57194U 23091AE  26162.60771558  .00009301  00000+0  36894-3 0  9992
2 57194  97.5074 225.4306 0012893 124.6528 235.5928 15.25517729163427
SITRO-AIS 10 (BURDAEV)  
1 57199U 23091AK  26162.59078599  .00018784  00000+0  49723-3 0  9990
2 57199  97.5088 232.9997 0007804  96.7474 263.4659 15.38397033163903
SITRO-AIS 9 (SHCHUKIN)  
1 57201U 23091AM  26162.61541659  .00018552  00000+0  49878-3 0  9993
2 57201  97.5086 232.7593 0008060  96.8027 263.4135 15.37916434163893
SITRO-AIS 12 (SMIRENNIY)
1 57204U 23091AQ  26162.60709093  .00018485  00000+0  49245-3 0  9996
2 57204  97.5099 233.2144 0007628  91.9429 268.2689 15.38205013163914
SITRO-AIS 11 (SHEFFER)  
1 57208U 23091AU  26162.62204161  .00019202  00000+0  50446-3 0  9991
2 57208  97.5098 233.4728 0007519  91.8112 268.3994 15.38628203163936
SITRO-AIS 25            
1 59066U 24039R   26162.61423956  .00002956  00000+0  23174-3 0  9998
2 59066  95.3915 231.2627 0144150 348.4214  11.3706 14.93486128123891
SITRO-AIS 26            
1 59067U 24039S   26162.61485275  .00002679  00000+0  21125-3 0  9997
2 59067  95.3916 231.1619 0144492 348.9931  10.8142 14.93282301123887
SITRO-AIS 27            
1 59068U 24039T   26162.58666034  .00002844  00000+0  22216-3 0  9994
2 59068  95.3915 231.4117 0143521 347.6583  12.1139 14.93698528123900
SITRO-AIS 28            
1 59071U 24039U   26162.63121397  .00002390  00000+0  18699-3 0  9998
2 59071  95.3918 231.4893 0143450 347.3743  12.3902 14.93734081123910
GRBBETA                 
1 60237U 24128C   26162.57868026  .00003203  00000+0  22564-3 0  9993
2 60237  61.9897 235.9431 0041388 133.4300 227.0250 15.06603237105428
OOV-CUBE (TUBSAT-30)    
1 60240U 24128F   26162.59923855  .00001977  00000+0  15980-3 0  9991
2 60240  61.9950 245.0577 0045327 132.4986 227.9949 15.02751187105272
ROBUSTA-3A (MEDITERRAN*)
1 60243U 24128J   26162.51224363  .00006273  00000+0  37269-3 0  9992
2 60243  61.9859 228.3117 0041954 127.1025 233.3917 15.11611105105567
LASARSAT                
1 62391U 24247Q   26160.80476977  .00035312  00000+0  71316-3 0  9997
2 62391  44.9750 303.6854 0008391 290.3514  69.6474 15.45910909 82173
CROCUBE                 
1 62394U 24247T   26162.55402787  .00037162  00000+0  70104-3 0  9991
2 62394  44.9723 291.2854 0008283 303.5524  56.4575 15.47864361 82477
FORESAIL-1 PRIME        
1 66778U 25276DS  26161.73711148  .00004395  00000+0  21544-3 0  9993
2 66778  97.4203 235.1262 0003823 116.6932 243.4694 15.18643023 29428
KNACKSAT-2              
1 67683U 98067XZ  26162.00743511  .00045581  00000+0  56748-3 0  9993
2 67683  51.6304 325.5501 0009943 187.9343 172.1494 15.59412992 19311
