OBJECT_NAME,OBJECT_ID,EPOCH,MEAN_MOTION,ECCENTRICITY,INCLINATION,RA_OF_ASC_NODE,ARG_OF_PERICENTER,MEAN_ANOMALY,EPHEMERIS_TYPE,CLASSIFICATION_TYPE,NORAD_CAT_ID,ELEMENT_SET_NO,REV_AT_EPOCH,BSTAR,MEAN_MOTION_DOT,MEAN_MOTION_DDOT
SIRION PATHFINDER-2,2018-099B,2026-06-11T00:53:43.368000,15.14493949,.0007655,97.4258,211.2409,330.3363,29.7434,0,U,43759,999,41169,.21986016E-3,.3984E-4,0
CORVUS BC4,2018-099K,2026-06-11T13:33:20.660544,15.12450489,.00089019,97.4072,205.7096,31.8449,328.3318,0,U,43767,999,41155,.2059992E-3,.3521E-4,0
M2 PATHFINDER,2020-037E,2026-06-11T11:03:27.892800,15.04652768,.0011967,97.8158,353.6285,164.5822,195.5770,0,U,45727,999,32463,.1417281E-3,.1931E-4,0
NETSAT-4,2020-068U,2026-06-11T13:12:39.470976,15.43678218,.0004567,97.8603,170.3387,2.6177,357.5092,0,U,46504,999,31490,.36585299E-3,.16418E-3,0
NETSAT-3,2020-068V,2026-06-11T13:15:26.280000,15.42483769,.00050163,97.8652,168.5644,21.9125,338.2335,0,U,46505,999,31481,.40758571E-3,.17585E-3,0
NETSAT-1,2020-068W,2026-06-11T12:39:53.740512,15.34510423,.00056923,97.8744,162.9354,48.6631,311.5100,0,U,46506,999,31443,.35416851E-3,.11763E-3,0
NETSAT-2,2020-068X,2026-06-11T06:35:18.744864,15.45743313,.00041983,97.8620,169.9134,43.2285,316.9291,0,U,46507,999,31482,.36601021E-3,.17621E-3,0
GREENCUBE (IO-117),2022-080E,2026-06-01T11:09:37.753056,6.42583280,.00088692,70.1435,303.7143,293.3663,66.6064,0,U,53109,999,9105,0,-.3E-7,0
SITRO-AIS 5 (KATYS),2023-091L,2026-06-11T13:46:41.071008,15.29326973,.00127709,97.5068,226.4202,120.7468,239.5031,0,U,57176,999,16348,.40815462E-3,.11566E-3,0
SITRO-AIS 6 (CHIRKIN),2023-091AC,2026-06-11T14:32:12.802272,15.25827724,.00130626,97.5076,225.6007,123.6696,236.5790,0,U,57192,999,16343,.36674735E-3,.9333E-4,0
SITRO-AIS 8 (ANOKHIN),2023-091AD,2026-06-11T14:25:16.249728,15.31982277,.00118393,97.5064,228.0135,117.0764,243.1687,0,U,57193,999,16359,.4587665E-3,.14127E-3,0
SITRO-AIS 7 (FARTUSHNIY),2023-091AE,2026-06-11T14:35:06.626112,15.25517729,.00128935,97.5074,225.4306,124.6528,235.5928,0,U,57194,999,16342,.36893805E-3,.9301E-4,0
SITRO-AIS 10 (BURDAEV),2023-091AK,2026-06-11T14:10:43.909536,15.38397033,.0007804,97.5088,232.9997,96.7474,263.4659,0,U,57199,999,16390,.49722877E-3,.18784E-3,0
SITRO-AIS 9 (SHCHUKIN),2023-091AM,2026-06-11T14:46:11.993376,15.37916434,.00080608,97.5086,232.7593,96.8027,263.4135,0,U,57201,999,16389,.49878318E-3,.18552E-3,0
SITRO-AIS 12 (SMIRENNIY),2023-091AQ,2026-06-11T14:34:12.656352,15.38205013,.0007628,97.5099,233.2144,91.9429,268.2689,0,U,57204,999,16391,.4924454E-3,.18485E-3,0
SITRO-AIS 11 (SHEFFER),2023-091AU,2026-06-11T14:55:44.395104,15.38628203,.00075193,97.5098,233.4728,91.8112,268.3994,0,U,57208,999,16393,.50446458E-3,.19202E-3,0
SITRO-AIS 25,2024-039R,2026-06-11T14:44:30.297984,14.93486128,.01441507,95.3915,231.2627,348.4214,11.3706,0,U,59066,999,12389,.23174058E-3,.2956E-4,0
SITRO-AIS 26,2024-039S,2026-06-11T14:45:23.277600,14.93282301,.01444929,95.3916,231.1619,348.9931,10.8142,0,U,59067,999,12388,.21124782E-3,.2679E-4,0
SITRO-AIS 27,2024-039T,2026-06-11T14:04:47.453376,14.93698528,.01435214,95.3915,231.4117,347.6583,12.1139,0,U,59068,999,12390,.22215585E-3,.2844E-4,0
SITRO-AIS 28,2024-039U,2026-06-11T15:08:56.887008,14.93734081,.01434503,95.3918,231.4893,347.3743,12.3902,0,U,59071,999,12391,.18699097E-3,.239E-4,0
GRBBETA,2024-128C,2026-06-11T13:53:17.974464,15.06603237,.00413889,61.9897,235.9431,133.4300,227.0250,0,U,60237,999,10542,.22563971E-3,.3203E-4,0
OOV-CUBE (TUBSAT-30),2024-128F,2026-06-11T14:22:54.210720,15.02751187,.00453273,61.9950,245.0577,132.4986,227.9949,0,U,60240,999,10527,.15979726E-3,.1977E-4,0
ROBUSTA-3A (MEDITERRANEE),2024-128J,2026-06-11T12:17:37.849632,15.11611105,.00419547,61.9859,228.3117,127.1025,233.3917,0,U,60243,999,10556,.37268544E-3,.6273E-4,0
LASARSAT,2024-247Q,2026-06-09T19:18:52.108128,15.45910909,.0008391,44.9750,303.6854,290.3514,69.6474,0,U,62391,999,8217,.71316E-3,.35312E-3,0
CROCUBE,2024-247T,2026-06-11T13:17:48.007968,15.47864361,.00082834,44.9723,291.2854,303.5524,56.4575,0,U,62394,999,8247,.70104063E-3,.37162E-3,0
FORESAIL-1 PRIME,2025-276DS,2026-06-10T17:41:26.431872,15.18643023,.00038239,97.4203,235.1262,116.6932,243.4694,0,U,66778,999,2942,.21543773E-3,.4395E-4,0
KNACKSAT-2,1998-067XZ,2026-06-11T00:10:42.393504,15.59412992,.00099437,51.6304,325.5501,187.9343,172.1494,0,U,67683,999,1931,.5674825E-3,.45581E-3,0
